STARLINK-36422          
1 67344U 26003L   26023.91671296 -.00267193  00000+0 -17822-2 0  9990
2 67344  42.9990 124.5964 0001597 249.2415  84.8940 15.75162212  3467
STARLINK-35676          
1 67345U 26003M   26023.91671296 -.00089333  00000+0 -58338-3 0  9997
2 67345  42.9992 124.5921 0001768 280.3584  55.6562 15.75085971  3468
STARLINK-36472          
1 67346U 26003N   26023.91671296 -.00074743  00000+0 -48672-3 0  9997
2 67346  42.9991 124.5870 0001813 281.2273  56.6898 15.75087180  3464
STARLINK-36420          
1 67347U 26003P   26023.91671296 -.00047122  00000+0 -30488-3 0  9995
2 67347  42.9992 124.5774 0001664 264.6499  77.1122 15.75074374  3478
STARLINK-36467          
1 67348U 26003Q   26023.91671296 -.00081988  00000+0 -53472-3 0  9992
2 67348  42.9990 124.5828 0001453 290.5004  49.3442 15.75086031  3472
STARLINK-36457          
1 67349U 26003R   26023.91671296 -.00029376  00000+0 -18859-3 0  9996
2 67349  42.9992 124.5728 0001494 272.3166  71.3670 15.75062690  3479
STARLINK-36475          
1 67350U 26003S   26023.91671296 -.00030406  00000+0 -19526-3 0  9996
2 67350  42.9991 124.5673 0001595 273.8215  71.7828 15.75071653  3469
STARLINK-36478          
1 67351U 26003T   26023.91671296 -.00074030  00000+0 -48248-3 0  9991
2 67351  42.9991 124.5629 0001710 254.8029  92.7402 15.75065542  3463
STARLINK-36479          
1 67352U 26003U   26023.91671296 -.00014193  00000+0 -89442-4 0  9998
2 67352  42.9992 124.5579 0001575 275.6390  73.8243 15.75039196  3470
STARLINK-36474          
1 67353U 26003V   26023.91671296  .00025377  00000+0  16788-3 0  9995
2 67353  42.9992 124.5536 0001607 265.3258  86.0558 15.75029337  3470
STARLINK-36448          
1 67354U 26003W   26023.91671296 -.00026325  00000+0 -16880-3 0  9995
2 67354  42.9991 124.5387 0001701 256.4522 100.6828 15.75037885  3474
STARLINK-36477          
1 67355U 26003X   26023.91671296  .00030412  00000+0  20056-3 0  9996
2 67355  42.9992 124.5491 0001740 264.5787  88.7248 15.75017146  3467
