CCSDS_OMM_VERS = 2.0
CREATION_DATE  = 
ORIGINATOR     = 

OBJECT_NAME    = STARLINK-36422
OBJECT_ID      = 2026-003L
CENTER_NAME    = EARTH
REF_FRAME      = TEME
TIME_SYSTEM    = UTC
MEAN_ELEMENT_THEORY = SGP/SGP4

EPOCH          = 2026-01-23T22:00:03.999744
MEAN_MOTION    = 15.75162212
ECCENTRICITY   = .00015973
INCLINATION    = 42.9990
RA_OF_ASC_NODE = 124.5964
ARG_OF_PERICENTER = 249.2415
MEAN_ANOMALY   = 84.8940

EPHEMERIS_TYPE = 0
CLASSIFICATION_TYPE = U
NORAD_CAT_ID   = 67344
ELEMENT_SET_NO = 999
REV_AT_EPOCH   = 346
BSTAR          = -.17821623E-2
MEAN_MOTION_DOT = -.267193E-2
MEAN_MOTION_DDOT = 0

CCSDS_OMM_VERS = 2.0
CREATION_DATE  = 
ORIGINATOR     = 

OBJECT_NAME    = STARLINK-35676
OBJECT_ID      = 2026-003M
CENTER_NAME    = EARTH
REF_FRAME      = TEME
TIME_SYSTEM    = UTC
MEAN_ELEMENT_THEORY = SGP/SGP4

EPOCH          = 2026-01-23T22:00:03.999744
MEAN_MOTION    = 15.75085971
ECCENTRICITY   = .00017687
INCLINATION    = 42.9992
RA_OF_ASC_NODE = 124.5921
ARG_OF_PERICENTER = 280.3584
MEAN_ANOMALY   = 55.6562

EPHEMERIS_TYPE = 0
CLASSIFICATION_TYPE = U
NORAD_CAT_ID   = 67345
ELEMENT_SET_NO = 999
REV_AT_EPOCH   = 346
BSTAR          = -.58338196E-3
MEAN_MOTION_DOT = -.89333E-3
MEAN_MOTION_DDOT = 0

CCSDS_OMM_VERS = 2.0
CREATION_DATE  = 
ORIGINATOR     = 

OBJECT_NAME    = STARLINK-36472
OBJECT_ID      = 2026-003N
CENTER_NAME    = EARTH
REF_FRAME      = TEME
TIME_SYSTEM    = UTC
MEAN_ELEMENT_THEORY = SGP/SGP4

EPOCH          = 2026-01-23T22:00:03.999744
MEAN_MOTION    = 15.75087180
ECCENTRICITY   = .00018134
INCLINATION    = 42.9991
RA_OF_ASC_NODE = 124.5870
ARG_OF_PERICENTER = 281.2273
MEAN_ANOMALY   = 56.6898

EPHEMERIS_TYPE = 0
CLASSIFICATION_TYPE = U
NORAD_CAT_ID   = 67346
ELEMENT_SET_NO = 999
REV_AT_EPOCH   = 346
BSTAR          = -.48672425E-3
MEAN_MOTION_DOT = -.74743E-3
MEAN_MOTION_DDOT = 0

CCSDS_OMM_VERS = 2.0
CREATION_DATE  = 
ORIGINATOR     = 

OBJECT_NAME    = STARLINK-36420
OBJECT_ID      = 2026-003P
CENTER_NAME    = EARTH
REF_FRAME      = TEME
TIME_SYSTEM    = UTC
MEAN_ELEMENT_THEORY = SGP/SGP4

EPOCH          = 2026-01-23T22:00:03.999744
MEAN_MOTION    = 15.75074374
ECCENTRICITY   = .00016643
INCLINATION    = 42.9992
RA_OF_ASC_NODE = 124.5774
ARG_OF_PERICENTER = 264.6499
MEAN_ANOMALY   = 77.1122

EPHEMERIS_TYPE = 0
CLASSIFICATION_TYPE = U
NORAD_CAT_ID   = 67347
ELEMENT_SET_NO = 999
REV_AT_EPOCH   = 347
BSTAR          = -.30488092E-3
MEAN_MOTION_DOT = -.47122E-3
MEAN_MOTION_DDOT = 0

CCSDS_OMM_VERS = 2.0
CREATION_DATE  = 
ORIGINATOR     = 

OBJECT_NAME    = STARLINK-36467
OBJECT_ID      = 2026-003Q
CENTER_NAME    = EARTH
REF_FRAME      = TEME
TIME_SYSTEM    = UTC
MEAN_ELEMENT_THEORY = SGP/SGP4

EPOCH          = 2026-01-23T22:00:03.999744
MEAN_MOTION    = 15.75086031
ECCENTRICITY   = .00014538
INCLINATION    = 42.9990
RA_OF_ASC_NODE = 124.5828
ARG_OF_PERICENTER = 290.5004
MEAN_ANOMALY   = 49.3442

EPHEMERIS_TYPE = 0
CLASSIFICATION_TYPE = U
NORAD_CAT_ID   = 67348
ELEMENT_SET_NO = 999
REV_AT_EPOCH   = 347
BSTAR          = -.53471798E-3
MEAN_MOTION_DOT = -.81988E-3
MEAN_MOTION_DDOT = 0

CCSDS_OMM_VERS = 2.0
CREATION_DATE  = 
ORIGINATOR     = 

OBJECT_NAME    = STARLINK-36457
OBJECT_ID      = 2026-003R
CENTER_NAME    = EARTH
REF_FRAME      = TEME
TIME_SYSTEM    = UTC
MEAN_ELEMENT_THEORY = SGP/SGP4

EPOCH          = 2026-01-23T22:00:03.999744
MEAN_MOTION    = 15.75062690
ECCENTRICITY   = .00014943
INCLINATION    = 42.9992
RA_OF_ASC_NODE = 124.5728
ARG_OF_PERICENTER = 272.3166
MEAN_ANOMALY   = 71.3670

EPHEMERIS_TYPE = 0
CLASSIFICATION_TYPE = U
NORAD_CAT_ID   = 67349
ELEMENT_SET_NO = 999
REV_AT_EPOCH   = 347
BSTAR          = -.18859491E-3
MEAN_MOTION_DOT = -.29376E-3
MEAN_MOTION_DDOT = 0

CCSDS_OMM_VERS = 2.0
CREATION_DATE  = 
ORIGINATOR     = 

OBJECT_NAME    = STARLINK-36475
OBJECT_ID      = 2026-003S
CENTER_NAME    = EARTH
REF_FRAME      = TEME
TIME_SYSTEM    = UTC
MEAN_ELEMENT_THEORY = SGP/SGP4

EPOCH          = 2026-01-23T22:00:03.999744
MEAN_MOTION    = 15.75071653
ECCENTRICITY   = .00015952
INCLINATION    = 42.9991
RA_OF_ASC_NODE = 124.5673
ARG_OF_PERICENTER = 273.8215
MEAN_ANOMALY   = 71.7828

EPHEMERIS_TYPE = 0
CLASSIFICATION_TYPE = U
NORAD_CAT_ID   = 67350
ELEMENT_SET_NO = 999
REV_AT_EPOCH   = 346
BSTAR          = -.19525867E-3
MEAN_MOTION_DOT = -.30406E-3
MEAN_MOTION_DDOT = 0

CCSDS_OMM_VERS = 2.0
CREATION_DATE  = 
ORIGINATOR     = 

OBJECT_NAME    = STARLINK-36478
OBJECT_ID      = 2026-003T
CENTER_NAME    = EARTH
REF_FRAME      = TEME
TIME_SYSTEM    = UTC
MEAN_ELEMENT_THEORY = SGP/SGP4

EPOCH          = 2026-01-23T22:00:03.999744
MEAN_MOTION    = 15.75065542
ECCENTRICITY   = .00017104
INCLINATION    = 42.9991
RA_OF_ASC_NODE = 124.5629
ARG_OF_PERICENTER = 254.8029
MEAN_ANOMALY   = 92.7402

EPHEMERIS_TYPE = 0
CLASSIFICATION_TYPE = U
NORAD_CAT_ID   = 67351
ELEMENT_SET_NO = 999
REV_AT_EPOCH   = 346
BSTAR          = -.482475E-3
MEAN_MOTION_DOT = -.7403E-3
MEAN_MOTION_DDOT = 0

CCSDS_OMM_VERS = 2.0
CREATION_DATE  = 
ORIGINATOR     = 

OBJECT_NAME    = STARLINK-36479
OBJECT_ID      = 2026-003U
CENTER_NAME    = EARTH
REF_FRAME      = TEME
TIME_SYSTEM    = UTC
MEAN_ELEMENT_THEORY = SGP/SGP4

EPOCH          = 2026-01-23T22:00:03.999744
MEAN_MOTION    = 15.75039196
ECCENTRICITY   = .0001575
INCLINATION    = 42.9992
RA_OF_ASC_NODE = 124.5579
ARG_OF_PERICENTER = 275.6390
MEAN_ANOMALY   = 73.8243

EPHEMERIS_TYPE = 0
CLASSIFICATION_TYPE = U
NORAD_CAT_ID   = 67352
ELEMENT_SET_NO = 999
REV_AT_EPOCH   = 347
BSTAR          = -.89442135E-4
MEAN_MOTION_DOT = -.14193E-3
MEAN_MOTION_DDOT = 0

CCSDS_OMM_VERS = 2.0
CREATION_DATE  = 
ORIGINATOR     = 

OBJECT_NAME    = STARLINK-36474
OBJECT_ID      = 2026-003V
CENTER_NAME    = EARTH
REF_FRAME      = TEME
TIME_SYSTEM    = UTC
MEAN_ELEMENT_THEORY = SGP/SGP4

EPOCH          = 2026-01-23T22:00:03.999744
MEAN_MOTION    = 15.75029337
ECCENTRICITY   = .00016075
INCLINATION    = 42.9992
RA_OF_ASC_NODE = 124.5536
ARG_OF_PERICENTER = 265.3258
MEAN_ANOMALY   = 86.0558

EPHEMERIS_TYPE = 0
CLASSIFICATION_TYPE = U
NORAD_CAT_ID   = 67353
ELEMENT_SET_NO = 999
REV_AT_EPOCH   = 347
BSTAR          = .16788236E-3
MEAN_MOTION_DOT = .25377E-3
MEAN_MOTION_DDOT = 0

CCSDS_OMM_VERS = 2.0
CREATION_DATE  = 
ORIGINATOR     = 

OBJECT_NAME    = STARLINK-36448
OBJECT_ID      = 2026-003W
CENTER_NAME    = EARTH
REF_FRAME      = TEME
TIME_SYSTEM    = UTC
MEAN_ELEMENT_THEORY = SGP/SGP4

EPOCH          = 2026-01-23T22:00:03.999744
MEAN_MOTION    = 15.75037885
ECCENTRICITY   = .00017011
INCLINATION    = 42.9991
RA_OF_ASC_NODE = 124.5387
ARG_OF_PERICENTER = 256.4522
MEAN_ANOMALY   = 100.6828

EPHEMERIS_TYPE = 0
CLASSIFICATION_TYPE = U
NORAD_CAT_ID   = 67354
ELEMENT_SET_NO = 999
REV_AT_EPOCH   = 347
BSTAR          = -.16879832E-3
MEAN_MOTION_DOT = -.26325E-3
MEAN_MOTION_DDOT = 0

CCSDS_OMM_VERS = 2.0
CREATION_DATE  = 
ORIGINATOR     = 

OBJECT_NAME    = STARLINK-36477
OBJECT_ID      = 2026-003X
CENTER_NAME    = EARTH
REF_FRAME      = TEME
TIME_SYSTEM    = UTC
MEAN_ELEMENT_THEORY = SGP/SGP4

EPOCH          = 2026-01-23T22:00:03.999744
MEAN_MOTION    = 15.75017146
ECCENTRICITY   = .00017404
INCLINATION    = 42.9992
RA_OF_ASC_NODE = 124.5491
ARG_OF_PERICENTER = 264.5787
MEAN_ANOMALY   = 88.7248

EPHEMERIS_TYPE = 0
CLASSIFICATION_TYPE = U
NORAD_CAT_ID   = 67355
ELEMENT_SET_NO = 999
REV_AT_EPOCH   = 346
BSTAR          = .20056204E-3
MEAN_MOTION_DOT = .30412E-3
MEAN_MOTION_DDOT = 0

